IRIDIUM 69              
1 25319U 98026A   25066.73286420  .00000740  00000+0  22505-3 0  9993
2 25319  86.4005 138.2944 0003016  46.8335 313.3116 14.40802778408455
IRIDIUM 71              
1 25320U 98026B   25066.89246517  .00000623  00000+0  18762-3 0  9995
2 25320  86.3991 132.9392 0004203  78.6269 281.5403 14.41012703409005
IRIDIUM 73              
1 25344U 98032C   25066.79994632  .00000955  00000+0  23414-3 0  9993
2 25344  86.4354  89.8901 0002229  74.9879 285.1573 14.51480083415852
IRIDIUM 82              
1 25467U 98051A   25066.73793056  .00026063  00000+0  89330-3 0  9998
2 25467  86.3748 159.3668 0094771 320.6940  38.7450 15.25766734408456
